[{"OBJECT_NAME":"YAOGAN-43 02C","OBJECT_ID":"2024-156C","EPOCH":"2026-03-09T12:58:27.079680","MEAN_MOTION":15.22982353,"ECCENTRICITY":0.00039016,"INCLINATION":34.9976,"RA_OF_ASC_NODE":104.8158,"ARG_OF_PERICENTER":208.5676,"MEAN_ANOMALY":151.4825,"EPHEMERIS_TYPE":0,"CLASSIFICATION_TYPE":"U","NORAD_CAT_ID":60947,"ELEMENT_SET_NO":999,"REV_AT_EPOCH":8424,"BSTAR":0.000414332,"MEAN_MOTION_DOT":9.954e-5,"MEAN_MOTION_DDOT":0},{"OBJECT_NAME":"OBJECT C","OBJECT_ID":"2017-042C","EPOCH":"2026-03-09T10:17:10.798080","MEAN_MOTION":15.23148717,"ECCENTRICITY":0.00098979,"INCLINATION":97.4062,"RA_OF_ASC_NODE":245.0163,"ARG_OF_PERICENTER":70.2407,"MEAN_ANOMALY":289.9897,"EPHEMERIS_TYPE":0,"CLASSIFICATION_TYPE":"U","NORAD_CAT_ID":42827,"ELEMENT_SET_NO":999,"REV_AT_EPOCH":47263,"BSTAR":0.00073854586,"MEAN_MOTION_DOT":0.00017421,"MEAN_MOTION_DDOT":0}]
